{
  "type": "FeatureCollection",
  "features": [
    {
      "type": "Feature",
      "properties": {
        "name": "Frontline (approx Mar 2026)",
        "type": "frontline"
      },
      "geometry": {
        "type": "LineString",
        "coordinates": [
          [
            36.6,
            49.4
          ],
          [
            37.0,
            49.2
          ],
          [
            37.3,
            48.9
          ],
          [
            37.6,
            48.7
          ],
          [
            37.8,
            48.5
          ],
          [
            38.0,
            48.3
          ],
          [
            38.1,
            48.0
          ],
          [
            37.9,
            47.7
          ],
          [
            37.7,
            47.5
          ],
          [
            37.4,
            47.3
          ],
          [
            37.0,
            47.1
          ],
          [
            36.5,
            47.0
          ],
          [
            35.8,
            46.8
          ],
          [
            35.5,
            46.7
          ],
          [
            35.2,
            46.6
          ],
          [
            34.8,
            46.5
          ],
          [
            33.8,
            46.2
          ],
          [
            33.5,
            46.1
          ]
        ]
      }
    },
    {
      "type": "Feature",
      "properties": {
        "name": "Crimea Admin Border",
        "type": "admin_border"
      },
      "geometry": {
        "type": "LineString",
        "coordinates": [
          [
            33.5,
            46.2
          ],
          [
            34.0,
            46.1
          ],
          [
            34.5,
            46.0
          ],
          [
            35.0,
            45.9
          ],
          [
            35.5,
            45.8
          ],
          [
            36.0,
            45.7
          ],
          [
            36.5,
            45.6
          ]
        ]
      }
    }
  ]
}